{"type": "FeatureCollection", "features": [{"type": "Feature", "properties": {"norad_id": 25590, "name": "COSMOS 2361", "group": "musson", "lat": 69.54054126515416, "lon": -3.6225236358873043, "alt_km": 1002.9869405548488, "timestamp": "2025-12-22T08:58:20.631095+00:00", "meta": {"OBJECT_NAME": "COSMOS 2361", "OBJECT_ID": "1998-076A", "EPOCH": "2025-12-21T22:16:17.008032", "MEAN_MOTION": 13.73218561, "ECCENTRICITY": 0.0030212, "INCLINATION": 82.9342, "RA_OF_ASC_NODE": 337.2902, "ARG_OF_PERICENTER": 238.9801, "MEAN_ANOMALY": 148.9011, "EPHEMERIS_TYPE": 0, "CLASSIFICATION_TYPE": "U", "NORAD_CAT_ID": 25590, "ELEMENT_SET_NO": 999, "REV_AT_EPOCH": 35237, "BSTAR": 4.3328e-05, "MEAN_MOTION_DOT": 5.5e-07, "MEAN_MOTION_DDOT": 0}, "tle": {"line1": "1 25590U 98076A   25355.92797463  .00000055  00000+0  43328-4 0  9991", "line2": "2 25590  82.9342 337.2902 0030212 238.9801 148.9011 13.73218561352377"}}, "geometry": {"type": "Point", "coordinates": [-3.6225236358873043, 69.54054126515416]}}, {"type": "Feature", "properties": {"norad_id": 26818, "name": "COSMOS 2378", "group": "musson", "lat": 4.354152726582345, "lon": 172.03922885566246, "alt_km": 962.783040435912, "timestamp": "2025-12-22T08:58:20.631115+00:00", "meta": {"OBJECT_NAME": "COSMOS 2378", "OBJECT_ID": "2001-023A", "EPOCH": "2025-12-21T23:28:27.266304", "MEAN_MOTION": 13.74142721, "ECCENTRICITY": 0.0032977, "INCLINATION": 82.927, "RA_OF_ASC_NODE": 352.8742, "ARG_OF_PERICENTER": 178.9434, "MEAN_ANOMALY": 199.8985, "EPHEMERIS_TYPE": 0, "CLASSIFICATION_TYPE": "U", "NORAD_CAT_ID": 26818, "ELEMENT_SET_NO": 999, "REV_AT_EPOCH": 23050, "BSTAR": 2.6991e-05, "MEAN_MOTION_DOT": 4.1e-07, "MEAN_MOTION_DDOT": 0}, "tle": {"line1": "1 26818U 01023A   25355.97809336  .00000041  00000+0  26991-4 0  9991", "line2": "2 26818  82.9270 352.8742 0032977 178.9434 199.8985 13.74142721230501"}}, "geometry": {"type": "Point", "coordinates": [172.03922885566246, 4.354152726582345]}}, {"type": "Feature", "properties": {"norad_id": 27436, "name": "COSMOS 2389", "group": "musson", "lat": 56.97479340845351, "lon": -49.174492077957666, "alt_km": 943.6736493054332, "timestamp": "2025-12-22T08:58:20.631128+00:00", "meta": {"OBJECT_NAME": "COSMOS 2389", "OBJECT_ID": "2002-026A", "EPOCH": "2025-12-22T03:30:33.446016", "MEAN_MOTION": 13.75155593, "ECCENTRICITY": 0.0047239, "INCLINATION": 82.9511, "RA_OF_ASC_NODE": 300.0214, "ARG_OF_PERICENTER": 35.0971, "MEAN_ANOMALY": 336.1418, "EPHEMERIS_TYPE": 0, "CLASSIFICATION_TYPE": "U", "NORAD_CAT_ID": 27436, "ELEMENT_SET_NO": 999, "REV_AT_EPOCH": 18278, "BSTAR": 4.9184e-05, "MEAN_MOTION_DOT": 6.3e-07, "MEAN_MOTION_DDOT": 0}, "tle": {"line1": "1 27436U 02026A   25356.14622044  .00000063  00000+0  49184-4 0  9994", "line2": "2 27436  82.9511 300.0214 0047239  35.0971 336.1418 13.75155593182786"}}, "geometry": {"type": "Point", "coordinates": [-49.174492077957666, 56.97479340845351]}}, {"type": "Feature", "properties": {"norad_id": 27818, "name": "COSMOS 2398", "group": "musson", "lat": -81.79560240609557, "lon": -153.54566708379872, "alt_km": 1022.2669110368051, "timestamp": "2025-12-22T08:58:20.631140+00:00", "meta": {"OBJECT_NAME": "COSMOS 2398", "OBJECT_ID": "2003-023A", "EPOCH": "2025-12-22T02:56:50.416800", "MEAN_MOTION": 13.72386646, "ECCENTRICITY": 0.0032715, "INCLINATION": 82.9484, "RA_OF_ASC_NODE": 265.7841, "ARG_OF_PERICENTER": 86.8011, "MEAN_ANOMALY": 27.849, "EPHEMERIS_TYPE": 0, "CLASSIFICATION_TYPE": "U", "NORAD_CAT_ID": 27818, "ELEMENT_SET_NO": 999, "REV_AT_EPOCH": 12945, "BSTAR": 6.6192e-05, "MEAN_MOTION_DOT": 7.6e-07, "MEAN_MOTION_DDOT": 0}, "tle": {"line1": "1 27818U 03023A   25356.12280575  .00000076  00000+0  66192-4 0  9995", "line2": "2 27818  82.9484 265.7841 0032715  86.8011  27.8490 13.72386646129455"}}, "geometry": {"type": "Point", "coordinates": [-153.54566708379872, -81.79560240609557]}}, {"type": "Feature", "properties": {"norad_id": 28380, "name": "COSMOS 2407", "group": "musson", "lat": -64.86531718885223, "lon": 41.03067148851965, "alt_km": 1007.5432224936658, "timestamp": "2025-12-22T08:58:20.631150+00:00", "meta": {"OBJECT_NAME": "COSMOS 2407", "OBJECT_ID": "2004-028A", "EPOCH": "2025-12-22T03:07:00.984000", "MEAN_MOTION": 13.76314712, "ECCENTRICITY": 0.0039896, "INCLINATION": 82.9597, "RA_OF_ASC_NODE": 205.9402, "ARG_OF_PERICENTER": 29.2204, "MEAN_ANOMALY": 88.6556, "EPHEMERIS_TYPE": 0, "CLASSIFICATION_TYPE": "U", "NORAD_CAT_ID": 28380, "ELEMENT_SET_NO": 999, "REV_AT_EPOCH": 7552, "BSTAR": 4.6818e-05, "MEAN_MOTION_DOT": 6.1e-07, "MEAN_MOTION_DDOT": 0}, "tle": {"line1": "1 28380U 04028A   25356.12987250  .00000061  00000+0  46818-4 0  9997", "line2": "2 28380  82.9597 205.9402 0039896  29.2204  88.6556 13.76314712 75521"}}, "geometry": {"type": "Point", "coordinates": [41.03067148851965, -64.86531718885223]}}, {"type": "Feature", "properties": {"norad_id": 28521, "name": "COSMOS 2414", "group": "musson", "lat": -11.405319627738836, "lon": -1.1946411322285921, "alt_km": 934.1049738411584, "timestamp": "2025-12-22T08:58:20.631161+00:00", "meta": {"OBJECT_NAME": "COSMOS 2414", "OBJECT_ID": "2005-002A", "EPOCH": "2025-12-21T23:24:23.087808", "MEAN_MOTION": 13.87904241, "ECCENTRICITY": 0.0041326, "INCLINATION": 82.9488, "RA_OF_ASC_NODE": 177.6761, "ARG_OF_PERICENTER": 114.0366, "MEAN_ANOMALY": 246.513, "EPHEMERIS_TYPE": 0, "CLASSIFICATION_TYPE": "U", "NORAD_CAT_ID": 28521, "ELEMENT_SET_NO": 999, "REV_AT_EPOCH": 5923, "BSTAR": 5.0905e-05, "MEAN_MOTION_DOT": 7.7e-07, "MEAN_MOTION_DDOT": 0}, "tle": {"line1": "1 28521U 05002A   25355.97526722  .00000077  00000+0  50905-4 0  9991", "line2": "2 28521  82.9488 177.6761 0041326 114.0366 246.5130 13.87904241 59230"}}, "geometry": {"type": "Point", "coordinates": [-1.1946411322285921, -11.405319627738836]}}, {"type": "Feature", "properties": {"norad_id": 32052, "name": "COSMOS 2429", "group": "musson", "lat": -62.03383895599774, "lon": 169.62344127673364, "alt_km": 1006.0131260170492, "timestamp": "2025-12-22T08:58:20.631172+00:00", "meta": {"OBJECT_NAME": "COSMOS 2429", "OBJECT_ID": "2007-038A", "EPOCH": "2025-12-22T04:18:05.224032", "MEAN_MOTION": 13.75150313, "ECCENTRICITY": 0.0038693, "INCLINATION": 82.9807, "RA_OF_ASC_NODE": 336.3497, "ARG_OF_PERICENTER": 11.929, "MEAN_ANOMALY": 348.2774, "EPHEMERIS_TYPE": 0, "CLASSIFICATION_TYPE": "U", "NORAD_CAT_ID": 32052, "ELEMENT_SET_NO": 999, "REV_AT_EPOCH": 91732, "BSTAR": 3.9121e-05, "MEAN_MOTION_DOT": 5.3e-07, "MEAN_MOTION_DDOT": 0}, "tle": {"line1": "1 32052U 07038A   25356.17922713  .00000053  00000+0  39121-4 0  9990", "line2": "2 32052  82.9807 336.3497 0038693  11.9290 348.2774 13.75150313917320"}}, "geometry": {"type": "Point", "coordinates": [169.62344127673364, -62.03383895599774]}}, {"type": "Feature", "properties": {"norad_id": 35635, "name": "COSMOS 2454", "group": "musson", "lat": -48.54232748771545, "lon": 153.2958209043617, "alt_km": 937.4242500947403, "timestamp": "2025-12-22T08:58:20.631182+00:00", "meta": {"OBJECT_NAME": "COSMOS 2454", "OBJECT_ID": "2009-039A", "EPOCH": "2025-12-21T23:24:56.268864", "MEAN_MOTION": 13.89929729, "ECCENTRICITY": 0.0020165, "INCLINATION": 82.9557, "RA_OF_ASC_NODE": 161.6435, "ARG_OF_PERICENTER": 48.9508, "MEAN_ANOMALY": 70.9765, "EPHEMERIS_TYPE": 0, "CLASSIFICATION_TYPE": "U", "NORAD_CAT_ID": 35635, "ELEMENT_SET_NO": 999, "REV_AT_EPOCH": 83278, "BSTAR": 3.7232e-05, "MEAN_MOTION_DOT": 6.2e-07, "MEAN_MOTION_DDOT": 0}, "tle": {"line1": "1 35635U 09039A   25355.97565126  .00000062  00000+0  37232-4 0  9992", "line2": "2 35635  82.9557 161.6435 0020165  48.9508  70.9765 13.89929729832785"}}, "geometry": {"type": "Point", "coordinates": [153.2958209043617, -48.54232748771545]}}, {"type": "Feature", "properties": {"norad_id": 36519, "name": "COSMOS 2463", "group": "musson", "lat": 76.41059519105828, "lon": 50.37344841497527, "alt_km": 1012.0731281155277, "timestamp": "2025-12-22T08:58:20.631192+00:00", "meta": {"OBJECT_NAME": "COSMOS 2463", "OBJECT_ID": "2010-017A", "EPOCH": "2025-12-22T01:40:21.877824", "MEAN_MOTION": 13.71649945, "ECCENTRICITY": 0.0034761, "INCLINATION": 82.9604, "RA_OF_ASC_NODE": 19.8561, "ARG_OF_PERICENTER": 261.2168, "MEAN_ANOMALY": 116.098, "EPHEMERIS_TYPE": 0, "CLASSIFICATION_TYPE": "U", "NORAD_CAT_ID": 36519, "ELEMENT_SET_NO": 999, "REV_AT_EPOCH": 78365, "BSTAR": 3.9924e-05, "MEAN_MOTION_DOT": 5.1e-07, "MEAN_MOTION_DDOT": 0}, "tle": {"line1": "1 36519U 10017A   25356.06969766  .00000051  00000+0  39924-4 0  9999", "line2": "2 36519  82.9604  19.8561 0034761 261.2168 116.0980 13.71649945783655"}}, "geometry": {"type": "Point", "coordinates": [50.37344841497527, 76.41059519105828]}}]}